{
    "week": 295,
    "satellites": [
        {
            "Name": "BEIDOU-2 IGSO-1 (C06)",
            "Line1": "1 36828U 10036A   24335.46627242 -.00000015  00000+0  00000+0 0  9992",
            "Line2": "2 36828  54.2582 168.0583 0042767 205.5802 331.0767  1.00282942 52444",
            "SatelliteNumber": "36828",
            "Classification": "U",
            "LaunchYear": "10",
            "LaunchNumber": "036",
            "PieceOfLaunch": "A",
            "EpochYear": "24",
            "EpochDay": 335.46627242,
            "FirstDerivativeMeanMotion": -1.5e-07,
            "SecondDerivativeMeanMotion": "00000+0",
            "BSTAR": "00000+0",
            "SetNumber": "999",
            "Inclination": 54.2582,
            "RAAN": 168.0583,
            "Eccentricity": 0.0042767,
            "ArgumentOfPerigee": 205.5802,
            "MeanAnomaly": 331.0767,
            "MeanMotion": 1.00282942,
            "RevolutionNumber": "5244"
        },
        {
            "Name": "BEIDOU-2 G4 (C04)",
            "Line1": "1 37210U 10057A   24335.60588174 -.00000084  00000+0  00000+0 0  9993",
            "Line2": "2 37210   2.2491  70.1433 0009345 181.2941 196.6669  1.00272713 51640",
            "SatelliteNumber": "37210",
            "Classification": "U",
            "LaunchYear": "10",
            "LaunchNumber": "057",
            "PieceOfLaunch": "A",
            "EpochYear": "24",
            "EpochDay": 335.60588174,
            "FirstDerivativeMeanMotion": -8.4e-07,
            "SecondDerivativeMeanMotion": "00000+0",
            "BSTAR": "00000+0",
            "SetNumber": "999",
            "Inclination": 2.2491,
            "RAAN": 70.1433,
            "Eccentricity": 0.0009345,
            "ArgumentOfPerigee": 181.2941,
            "MeanAnomaly": 196.6669,
            "MeanMotion": 1.00272713,
            "RevolutionNumber": "5164"
        },
        {
            "Name": "BEIDOU-2 IGSO-2 (C07)",
            "Line1": "1 37256U 10068A   24334.73967046 -.00000205  00000+0  00000+0 0  9992",
            "Line2": "2 37256  48.5771 278.7994 0037686 218.6719 302.5714  1.00250110 51139",
            "SatelliteNumber": "37256",
            "Classification": "U",
            "LaunchYear": "10",
            "LaunchNumber": "068",
            "PieceOfLaunch": "A",
            "EpochYear": "24",
            "EpochDay": 334.73967046,
            "FirstDerivativeMeanMotion": -2.05e-06,
            "SecondDerivativeMeanMotion": "00000+0",
            "BSTAR": "00000+0",
            "SetNumber": "999",
            "Inclination": 48.5771,
            "RAAN": 278.7994,
            "Eccentricity": 0.0037686,
            "ArgumentOfPerigee": 218.6719,
            "MeanAnomaly": 302.5714,
            "MeanMotion": 1.0025011,
            "RevolutionNumber": "5113"
        },
        {
            "Name": "BEIDOU-2 IGSO-3 (C08)",
            "Line1": "1 37384U 11013A   24334.73313863 -.00000193  00000+0  00000+0 0  9993",
            "Line2": "2 37384  61.5951  45.5220 0031726 181.6775 213.1763  1.00267556 50006",
            "SatelliteNumber": "37384",
            "Classification": "U",
            "LaunchYear": "11",
            "LaunchNumber": "013",
            "PieceOfLaunch": "A",
            "EpochYear": "24",
            "EpochDay": 334.73313863,
            "FirstDerivativeMeanMotion": -1.93e-06,
            "SecondDerivativeMeanMotion": "00000+0",
            "BSTAR": "00000+0",
            "SetNumber": "999",
            "Inclination": 61.5951,
            "RAAN": 45.522,
            "Eccentricity": 0.0031726,
            "ArgumentOfPerigee": 181.6775,
            "MeanAnomaly": 213.1763,
            "MeanMotion": 1.00267556,
            "RevolutionNumber": "5000"
        },
        {
            "Name": "BEIDOU-2 IGSO-4 (C09)",
            "Line1": "1 37763U 11038A   24333.99667604  .00000078  00000+0  00000+0 0  9994",
            "Line2": "2 37763  54.5632 170.7209 0129774 228.4779 124.3522  1.00273724 48971",
            "SatelliteNumber": "37763",
            "Classification": "U",
            "LaunchYear": "11",
            "LaunchNumber": "038",
            "PieceOfLaunch": "A",
            "EpochYear": "24",
            "EpochDay": 333.99667604,
            "FirstDerivativeMeanMotion": 7.8e-07,
            "SecondDerivativeMeanMotion": "00000+0",
            "BSTAR": "00000+0",
            "SetNumber": "999",
            "Inclination": 54.5632,
            "RAAN": 170.7209,
            "Eccentricity": 0.0129774,
            "ArgumentOfPerigee": 228.4779,
            "MeanAnomaly": 124.3522,
            "MeanMotion": 1.00273724,
            "RevolutionNumber": "4897"
        },
        {
            "Name": "BEIDOU-2 IGSO-5 (C10)",
            "Line1": "1 37948U 11073A   24334.82004965 -.00000179  00000+0  00000+0 0  9999",
            "Line2": "2 37948  48.7123 278.4948 0100702 222.2615 317.0028  1.00255611 47474",
            "SatelliteNumber": "37948",
            "Classification": "U",
            "LaunchYear": "11",
            "LaunchNumber": "073",
            "PieceOfLaunch": "A",
            "EpochYear": "24",
            "EpochDay": 334.82004965,
            "FirstDerivativeMeanMotion": -1.79e-06,
            "SecondDerivativeMeanMotion": "00000+0",
            "BSTAR": "00000+0",
            "SetNumber": "999",
            "Inclination": 48.7123,
            "RAAN": 278.4948,
            "Eccentricity": 0.0100702,
            "ArgumentOfPerigee": 222.2615,
            "MeanAnomaly": 317.0028,
            "MeanMotion": 1.00255611,
            "RevolutionNumber": "4747"
        },
        {
            "Name": "BEIDOU-2 G5 (C05)",
            "Line1": "1 38091U 12008A   24335.52787074  .00000085  00000+0  00000+0 0  9990",
            "Line2": "2 38091   2.1691  70.9454 0011289 224.5317  23.1680  1.00270254 46715",
            "SatelliteNumber": "38091",
            "Classification": "U",
            "LaunchYear": "12",
            "LaunchNumber": "008",
            "PieceOfLaunch": "A",
            "EpochYear": "24",
            "EpochDay": 335.52787074,
            "FirstDerivativeMeanMotion": 8.5e-07,
            "SecondDerivativeMeanMotion": "00000+0",
            "BSTAR": "00000+0",
            "SetNumber": "999",
            "Inclination": 2.1691,
            "RAAN": 70.9454,
            "Eccentricity": 0.0011289,
            "ArgumentOfPerigee": 224.5317,
            "MeanAnomaly": 23.168,
            "MeanMotion": 1.00270254,
            "RevolutionNumber": "4671"
        },
        {
            "Name": "BEIDOU-2 M3 (C11)",
            "Line1": "1 38250U 12018A   24335.38786451 -.00000065  00000+0  00000+0 0  9999",
            "Line2": "2 38250  56.2215 323.8008 0025416 267.6238  92.0889  1.86233683 85444",
            "SatelliteNumber": "38250",
            "Classification": "U",
            "LaunchYear": "12",
            "LaunchNumber": "018",
            "PieceOfLaunch": "A",
            "EpochYear": "24",
            "EpochDay": 335.38786451,
            "FirstDerivativeMeanMotion": -6.5e-07,
            "SecondDerivativeMeanMotion": "00000+0",
            "BSTAR": "00000+0",
            "SetNumber": "999",
            "Inclination": 56.2215,
            "RAAN": 323.8008,
            "Eccentricity": 0.0025416,
            "ArgumentOfPerigee": 267.6238,
            "MeanAnomaly": 92.0889,
            "MeanMotion": 1.86233683,
            "RevolutionNumber": "8544"
        },
        {
            "Name": "BEIDOU-2 M4 (C12)",
            "Line1": "1 38251U 12018B   24334.78144229 -.00000068  00000+0  00000+0 0  9997",
            "Line2": "2 38251  56.1272 323.0801 0016323 270.2599  89.5571  1.86232123 85433",
            "SatelliteNumber": "38251",
            "Classification": "U",
            "LaunchYear": "12",
            "LaunchNumber": "018",
            "PieceOfLaunch": "B",
            "EpochYear": "24",
            "EpochDay": 334.78144229,
            "FirstDerivativeMeanMotion": -6.8e-07,
            "SecondDerivativeMeanMotion": "00000+0",
            "BSTAR": "00000+0",
            "SetNumber": "999",
            "Inclination": 56.1272,
            "RAAN": 323.0801,
            "Eccentricity": 0.0016323,
            "ArgumentOfPerigee": 270.2599,
            "MeanAnomaly": 89.5571,
            "MeanMotion": 1.86232123,
            "RevolutionNumber": "8543"
        },
        {
            "Name": "BEIDOU-2 M6 (C14)",
            "Line1": "1 38775U 12050B   24335.02806424 -.00000034  00000+0  00000+0 0  9997",
            "Line2": "2 38775  56.0511  81.6275 0010780 340.2735  19.6667  1.86230997 82807",
            "SatelliteNumber": "38775",
            "Classification": "U",
            "LaunchYear": "12",
            "LaunchNumber": "050",
            "PieceOfLaunch": "B",
            "EpochYear": "24",
            "EpochDay": 335.02806424,
            "FirstDerivativeMeanMotion": -3.4e-07,
            "SecondDerivativeMeanMotion": "00000+0",
            "BSTAR": "00000+0",
            "SetNumber": "999",
            "Inclination": 56.0511,
            "RAAN": 81.6275,
            "Eccentricity": 0.001078,
            "ArgumentOfPerigee": 340.2735,
            "MeanAnomaly": 19.6667,
            "MeanMotion": 1.86230997,
            "RevolutionNumber": "8280"
        }
    ]
}